IRIDIUM 8 [+]           
1 24792U 97020A   17274.14509782 -.00000006  00000-0 -92713-5 0  9994
2 24792  86.3912 274.3750 0002215  88.3321 271.8128 14.34217571 68387
IRIDIUM 7 [+]           
1 24793U 97020B   17274.41744017  .00000110  00000-0  32233-4 0  9991
2 24793  86.3920 274.5521 0002198  94.4275 265.7172 14.34228868 68428
IRIDIUM 6 [+]           
1 24794U 97020C   17274.06266721 -.00000033  00000-0 -19024-4 0  9993
2 24794  86.3916 274.6277 0002149  85.8152 274.3289 14.34216093 68373
IRIDIUM 5 [+]           
1 24795U 97020D   17274.05628968 -.00000070  00000-0 -32104-4 0  9993
2 24795  86.3907 274.6467 0002078  85.0632 275.0801 14.34215975 68456
IRIDIUM 4 [-]           
1 24796U 97020E   17274.48842188  .00000161  00000-0  49358-4 0  9991
2 24796  86.3913 273.3210 0002268  90.7389  63.0361 14.35178355 68557
IRIDIUM 914 [-]         
1 24836U 97030A   17274.46226740  .00000148  00000-0  41839-4 0  9996
2 24836  86.3897 289.8164 0003759 105.4414 254.7200 14.38779925 64226
IRIDIUM 12 [+]          
1 24837U 97030B   17274.22041275  .00000029  00000-0  33291-5 0  9991
2 24837  86.3932 305.7651 0002240  94.4749 309.0585 14.34219724 62149
IRIDIUM 10 [+]          
1 24839U 97030D   17274.20767472  .00000110  00000-0  32047-4 0  9993
2 24839  86.3932 305.7497 0002248  94.3956 308.7911 14.34220521 62153
IRIDIUM 13 [+]          
1 24840U 97030E   17274.21835994  .00000015  00000-0 -17156-5 0  9991
2 24840  86.3941 305.8715 0001615  70.0479 290.0891 14.34218709 62174
IRIDIUM 16 [-]          
1 24841U 97030F   17274.20322167  .00000139  00000-0  40478-4 0  9992
2 24841  86.4014 305.6149 0001088   9.6294 350.4924 14.36738026 62802
IRIDIUM 911 [-]         
1 24842U 97030G   17274.47663696  .00000175  00000-0  44229-4 0  9995
2 24842  86.4441 306.2218 0016753  97.5917 262.7188 14.44983764 68290
IRIDIUM 15 [+]          
1 24869U 97034A   17274.31059834  .00000206  00000-0  60947-4 0  9994
2 24869  86.4209 337.6882 0002335  85.6765 274.4700 14.38605228 59194
IRIDIUM 17 [-]          
1 24870U 97034B   17274.31211215  .00000135  00000-0  39897-4 0  9990
2 24870  86.3987 335.7162 0001554 147.2230 212.9063 14.35776628 59405
IRIDIUM 920 [-]         
1 24871U 97034C   17274.24194466  .00000139  00000-0  38360-4 0  9999
2 24871  86.3976 321.6753 0011565   2.5239 357.6016 14.39489378 61617
IRIDIUM 18 [+]          
1 24872U 97034D   17274.30427930  .00000198  00000-0  58099-4 0  9998
2 24872  86.4235 337.7172 0002347  79.3760 280.7702 14.38604686 59175
IRIDIUM 921 [-]         
1 24873U 97034E   17274.37179841  .00001907  00000-0  11048-3 0  9992
2 24873  86.3965  15.7791 0007279   3.2543 356.8741 15.11554092104131
IRIDIUM 26 [-]          
1 24903U 97043A   17274.40835529  .00000116  00000-0  33722-4 0  9997
2 24903  86.4011 210.3188 0002132  80.7130 279.4307 14.35275349 53205
IRIDIUM 25 [+]          
1 24904U 97043B   17274.39842279  .00000191  00000-0  60968-4 0  9991
2 24904  86.4000 211.0177 0002227  78.8272 281.3174 14.34220369 53058
IRIDIUM 46 [+]          
1 24905U 97043C   17274.20180819  .00000018  00000-0 -63822-6 0  9990
2 24905  86.4025 211.0928 0002407  65.8001 294.3446 14.34216760 53029
IRIDIUM 23 [+]          
1 24906U 97043D   17274.43163071  .00000193  00000-0  61852-4 0  9999
2 24906  86.4014 211.0701 0002363  79.8096  58.8814 14.34219858 53064
IRIDIUM 22 [+]          
1 24907U 97043E   17274.37939143  .00000184  00000-0  58652-4 0  9998
2 24907  86.4011 211.7071 0002251  81.2723 278.8728 14.34217430 53050
DUMMY MASS 1 [-]        
1 24925U 97048A   17273.83136525  .00000122  00000-0  10937-4 0  9992
2 24925  86.3394 354.7083 0008451  43.6234 316.5656 14.85148138 87265
DUMMY MASS 2 [-]        
1 24926U 97048B   17274.22328545  .00000117  00000-0  10432-4 0  9996
2 24926  86.3394 355.6605 0009444  47.7601 312.4423 14.84916170 87166
IRIDIUM 29 [-]          
1 24944U 97051A   17274.40985355  .00000152  00000-0  46729-4 0  9995
2 24944  86.3953 242.4194 0002417  89.7090 270.4383 14.34623512 49665
IRIDIUM 32 [+]          
1 24945U 97051B   17274.47784916  .00000114  00000-0  33571-4 0  9992
2 24945  86.3948 242.6352 0002374  86.1232 274.0235 14.34218582 49651
IRIDIUM 33 [-]          
1 24946U 97051C   17274.48913568  .00000135  00000-0  41551-4 0  9991
2 24946  86.3868 242.2126 0005730 253.3383 106.7184 14.33569901 49266
IRIDIUM 28 [-]          
1 24948U 97051E   17274.42493136  .00000155  00000-0  46988-4 0  9992
2 24948  86.3959 241.5817 0001964  81.9827 278.1592 14.35570809 49821
IRIDIUM 30 [-]          
1 24949U 97051F   17271.33813138  .24952974 -19063-5  38201-3 0  9992
2 24949  86.3452 238.9858 0025131 154.2013 206.3664 16.46254047 49862
IRIDIUM 31 [+]          
1 24950U 97051G   17274.42109081  .00000024  00000-0  13904-5 0  9996
2 24950  86.4211 242.7569 0002403  78.8679 281.2790 14.38595616 49643
IRIDIUM 19 [+]          
1 24965U 97056A   17274.10070603  .00000009  00000-0 -38897-5 0  9991
2 24965  86.3913 274.4055 0002183  87.0065 273.1381 14.34218389 47734
IRIDIUM 35 [+]          
1 24966U 97056B   17274.11338797  .00000002  00000-0 -62651-5 0  9992
2 24966  86.3913 274.3934 0002180  86.8370 273.3075 14.34218578 47713
IRIDIUM 36 [-]          
1 24967U 97056C   17274.42588562  .00000137  00000-0  40814-4 0  9998
2 24967  86.3927 273.2354 0002219  95.5178 264.6271 14.35622062 48102
IRIDIUM 37 [+]          
1 24968U 97056D   17274.43685158  .00000009  00000-0 -38806-5 0  9997
2 24968  86.3915 274.4475 0002213  87.6525 272.4924 14.34218847 47763
IRIDIUM 34 [+]          
1 24969U 97056E   17274.24657631  .00000001  00000-0 -68319-5 0  9996
2 24969  86.3915 274.4642 0002152  87.8970 272.2472 14.34218677 47732
IRIDIUM 43 [-]          
1 25039U 97069A   17274.51091216  .00178420  67091-5  82335-3 0  9990
2 25039  86.3979 327.2006 0233541 355.2643   4.6403 15.53196101 42992
IRIDIUM 41 [+]          
1 25040U 97069B   17274.43755989  .00000016  00000-0 -14090-5 0  9990
2 25040  86.3985 337.5542 0002143  91.4780 268.6661 14.34221398 41546
IRIDIUM 40 [-]          
1 25041U 97069C   17274.45020980  .00059843 -24864-6  50599-3 0  9993
2 25041  86.3866 325.3000 0245267 232.8146 125.0496 15.39568143 43252
IRIDIUM 39 [B]          
1 25042U 97069D   17274.29581283  .00000185  00000-0  46045-4 0  9990
2 25042  86.3941 333.9519 0017529 325.5746  34.4319 14.46183846 42055
IRIDIUM 38 [-]          
1 25043U 97069E   17274.27356804  .00000130  00000-0  37965-4 0  9999
2 25043  86.3984 334.6740 0001010  63.6322 296.4978 14.36051126 41958
IRIDIUM 42 [-]          
1 25077U 97077A   17274.28484037  .00000084  00000-0  22807-4 0  9993
2 25077  86.3994 337.5525 0001809  85.7870 274.3533 14.34501899 37400
IRIDIUM 44 [-]          
1 25078U 97077B   17274.25291873  .00000144  00000-0  40902-4 0  9998
2 25078  86.3973 326.8761 0000486  69.6038 290.5212 14.38146775 38876
IRIDIUM 45 [+]          
1 25104U 97082A   17274.45886309  .00000015  00000-0 -17401-5 0  9997
2 25104  86.3946 242.7660 0001790  56.2187 303.9179 14.34216811 35600
IRIDIUM 24 [-]          
1 25105U 97082B   17274.30094415  .00000172  00000-0  48336-4 0  9994
2 25105  86.3976 190.6617 0011845   6.1742 353.9601 14.39877904 38126
IRIDIUM 47 [+]          
1 25106U 97082C   17274.34769163  .00000183  00000-0  58141-4 0  9995
2 25106  86.3998 210.9069 0002351  79.9167 280.2294 14.34216904 35588
IRIDIUM 49 [+]          
1 25108U 97082E   17274.38253861  .00000015  00000-0 -17878-5 0  9992
2 25108  86.3999 210.9975 0002333  80.4272  34.0898 14.34216745 35590
IRIDIUM 52 [+]          
1 25169U 98010A   17274.45935862  .00000041  00000-0  75883-5 0  9995
2 25169  86.3937 305.9675 0002224  94.7141 265.4308 14.34220265 27019
IRIDIUM 56 [+]          
1 25170U 98010B   17274.52279783  .00000158  00000-0  49177-4 0  9993
2 25170  86.3934 306.0561 0001966  90.2305 269.9116 14.34221085 27005
IRIDIUM 54 [+]          
1 25171U 98010C   17274.20567141  .00000038  00000-0  64527-5 0  9991
2 25171  86.3937 306.0951 0002245  94.8306 265.3146 14.34219554 27128
IRIDIUM 50 [+]          
1 25172U 98010D   17274.44667701  .00000033  00000-0  45763-5 0  9997
2 25172  86.3937 305.9500 0002329  95.1355 265.0107 14.34219971 26999
IRIDIUM 53 [+]          
1 25173U 98010E   17274.46571639  .00000039  00000-0  67182-5 0  9999
2 25173  86.3937 305.9487 0002227  94.8492 265.2958 14.34219759 27002
IRIDIUM 51 [S]          
1 25262U 98018A   17274.41782995  .00000040  00000-0  73109-5 0  9998
2 25262  86.3916 274.6232 0002702  84.1857 275.9647 14.34218021 26387
IRIDIUM 61 [+]          
1 25263U 98018B   17274.09435603  .00000007  00000-0 -44825-5 0  9991
2 25263  86.3914 274.5562 0002201  86.8555 273.2893 14.34218633 22041
IRIDIUM 55 [+]          
1 25272U 98019A   17274.01012929  .00000001  00000-0 -60643-5 0  9996
2 25272  86.4202 242.7390 0002640  78.7252 281.4243 14.38594764 21246
IRIDIUM 57 [-]          
1 25273U 98019B   17274.47885635  .00000142  00000-0  43585-4 0  9999
2 25273  86.3955 242.8588 0002323  90.3115 269.8347 14.34279980 21305
IRIDIUM 58 [+]          
1 25274U 98019C   17274.43367257  .00000038  00000-0  57352-5 0  9993
2 25274  86.4204 243.0715 0002592  82.0935 278.0557 14.38595711 21307
IRIDIUM 59 [+]          
1 25275U 98019D   17274.43348811  .00000036  00000-0  57032-5 0  9992
2 25275  86.3949 242.9217 0002392  87.4216 272.7253 14.34217661 21290
IRIDIUM 60 [+]          
1 25276U 98019E   17274.43986104  .00000030  00000-0  38041-5 0  9999
2 25276  86.3946 242.5346 0002270  85.3005 274.8450 14.34216774 21291
IRIDIUM 62 [+]          
1 25285U 98021A   17274.26179618  .00000209  00000-0  67580-4 0  9994
2 25285  86.4018 179.5938 0002225  79.2162 280.9285 14.34221814 20221
IRIDIUM 63 [-]          
1 25286U 98021B   17274.25193493  .00000126  00000-0  37660-4 0  9995
2 25286  86.4049 180.0125 0002290  85.0275  26.6620 14.34684173 20255
